[
  {
    "OBJECT_NAME": "STARLINK-4513",
    "OBJECT_ID": "22101X",
    "EPOCH": "2025-11-11T04:10:29.887392",
    "MEAN_MOTION": 15.08830245,
    "ECCENTRICITY": 0.0001658,
    "INCLINATION": 53.2179,
    "RA_OF_ASC_NODE": 236.157,
    "ARG_OF_PERICENTER": 86.8635,
    "MEAN_ANOMALY": 273.2547,
    "EPHEMERIS_TYPE": 0,
    "CLASSIFICATION_TYPE": "U",
    "NORAD_CAT_ID": 53548,
    "ELEMENT_SET_NO": 999,
    "REV_AT_EPOCH": 17841,
    "BSTAR": 0.0,
    "MEAN_MOTION_DOT": -1.341e-05,
    "MEAN_MOTION_DDOT": 0.0,
    "TLE_LINE1": "1 53548U 22101X   25315.17395703 -.00001341  00000+0 -66174-4 0  9990",
    "TLE_LINE2": "2 53548  53.2179 236.1570 0001658  86.8635 273.2547 15.08830245178411",
    "COMMENT": "Grouped by shell and plane from TLE"
  },
  {
    "OBJECT_NAME": "STARLINK-4518",
    "OBJECT_ID": "22101Z",
    "EPOCH": "2025-11-11T02:29:46.736160",
    "MEAN_MOTION": 15.08846238,
    "ECCENTRICITY": 0.0001615,
    "INCLINATION": 53.2182,
    "RA_OF_ASC_NODE": 236.4721,
    "ARG_OF_PERICENTER": 84.6592,
    "MEAN_ANOMALY": 275.4585,
    "EPHEMERIS_TYPE": 0,
    "CLASSIFICATION_TYPE": "U",
    "NORAD_CAT_ID": 53550,
    "ELEMENT_SET_NO": 999,
    "REV_AT_EPOCH": 17906,
    "BSTAR": 0.0001069,
    "MEAN_MOTION_DOT": 1.414e-05,
    "MEAN_MOTION_DDOT": 0.0,
    "TLE_LINE1": "1 53550U 22101Z   25315.10401315  .00001414  00000+0  10690-3 0  9993",
    "TLE_LINE2": "2 53550  53.2182 236.4721 0001615  84.6592 275.4585 15.08846238179067",
    "COMMENT": "Grouped by shell and plane from TLE"
  },
  {
    "OBJECT_NAME": "STARLINK-4514",
    "OBJECT_ID": "22101AA",
    "EPOCH": "2025-11-11T04:15:47.293344",
    "MEAN_MOTION": 15.08866093,
    "ECCENTRICITY": 0.0001206,
    "INCLINATION": 53.2152,
    "RA_OF_ASC_NODE": 236.1437,
    "ARG_OF_PERICENTER": 86.6894,
    "MEAN_ANOMALY": 273.4236,
    "EPHEMERIS_TYPE": 0,
    "CLASSIFICATION_TYPE": "U",
    "NORAD_CAT_ID": 53551,
    "ELEMENT_SET_NO": 999,
    "REV_AT_EPOCH": 17907,
    "BSTAR": 0.00097338,
    "MEAN_MOTION_DOT": 0.00015248,
    "MEAN_MOTION_DDOT": 0.0,
    "TLE_LINE1": "1 53551U 22101AA  25315.17763071  .00015248  00000+0  97338-3 0  9995",
    "TLE_LINE2": "2 53551  53.2152 236.1437 0001206  86.6894 273.4236 15.08866093179072",
    "COMMENT": "Grouped by shell and plane from TLE"
  },
  {
    "OBJECT_NAME": "STARLINK-4495",
    "OBJECT_ID": "22101AB",
    "EPOCH": "2025-11-11T03:54:34.488288",
    "MEAN_MOTION": 15.08846384,
    "ECCENTRICITY": 0.0001863,
    "INCLINATION": 53.2172,
    "RA_OF_ASC_NODE": 236.2058,
    "ARG_OF_PERICENTER": 88.646,
    "MEAN_ANOMALY": 271.4746,
    "EPHEMERIS_TYPE": 0,
    "CLASSIFICATION_TYPE": "U",
    "NORAD_CAT_ID": 53552,
    "ELEMENT_SET_NO": 999,
    "REV_AT_EPOCH": 17906,
    "BSTAR": 8.047800000000001e-06,
    "MEAN_MOTION_DOT": -1.6e-06,
    "MEAN_MOTION_DDOT": 0.0,
    "TLE_LINE1": "1 53552U 22101AB  25315.16289917 -.00000160  00000+0  80478-5 0  9994",
    "TLE_LINE2": "2 53552  53.2172 236.2058 0001863  88.6460 271.4746 15.08846384179069",
    "COMMENT": "Grouped by shell and plane from TLE"
  },
  {
    "OBJECT_NAME": "STARLINK-4501",
    "OBJECT_ID": "22101AC",
    "EPOCH": "2025-11-11T03:43:57.602784",
    "MEAN_MOTION": 15.08838537,
    "ECCENTRICITY": 0.0001477,
    "INCLINATION": 53.2169,
    "RA_OF_ASC_NODE": 236.1145,
    "ARG_OF_PERICENTER": 91.1137,
    "MEAN_ANOMALY": 269.0025,
    "EPHEMERIS_TYPE": 0,
    "CLASSIFICATION_TYPE": "U",
    "NORAD_CAT_ID": 53553,
    "ELEMENT_SET_NO": 999,
    "REV_AT_EPOCH": 17907,
    "BSTAR": 0.00016264,
    "MEAN_MOTION_DOT": 2.301e-05,
    "MEAN_MOTION_DDOT": 0.0,
    "TLE_LINE1": "1 53553U 22101AC  25315.15552781  .00002301  00000+0  16264-3 0  9994",
    "TLE_LINE2": "2 53553  53.2169 236.1145 0001477  91.1137 269.0025 15.08838537179078",
    "COMMENT": "Grouped by shell and plane from TLE"
  },
  {
    "OBJECT_NAME": "STARLINK-4506",
    "OBJECT_ID": "22101AD",
    "EPOCH": "2025-11-11T03:45:21.280320",
    "MEAN_MOTION": 15.08847203,
    "ECCENTRICITY": 0.0001337,
    "INCLINATION": 53.2166,
    "RA_OF_ASC_NODE": 236.2474,
    "ARG_OF_PERICENTER": 89.162,
    "MEAN_ANOMALY": 270.9525,
    "EPHEMERIS_TYPE": 0,
    "CLASSIFICATION_TYPE": "U",
    "NORAD_CAT_ID": 53554,
    "ELEMENT_SET_NO": 999,
    "REV_AT_EPOCH": 17841,
    "BSTAR": 0.00038627,
    "MEAN_MOTION_DOT": 5.866e-05,
    "MEAN_MOTION_DDOT": 0.0,
    "TLE_LINE1": "1 53554U 22101AD  25315.15649630  .00005866  00000+0  38627-3 0  9991",
    "TLE_LINE2": "2 53554  53.2166 236.2474 0001337  89.1620 270.9525 15.08847203178414",
    "COMMENT": "Grouped by shell and plane from TLE"
  },
  {
    "OBJECT_NAME": "STARLINK-4504",
    "OBJECT_ID": "22101AE",
    "EPOCH": "2025-11-11T03:59:52.332288",
    "MEAN_MOTION": 15.08852084,
    "ECCENTRICITY": 0.0001458,
    "INCLINATION": 53.2186,
    "RA_OF_ASC_NODE": 236.1902,
    "ARG_OF_PERICENTER": 100.7652,
    "MEAN_ANOMALY": 259.3505,
    "EPHEMERIS_TYPE": 0,
    "CLASSIFICATION_TYPE": "U",
    "NORAD_CAT_ID": 53555,
    "ELEMENT_SET_NO": 999,
    "REV_AT_EPOCH": 17907,
    "BSTAR": 0.0,
    "MEAN_MOTION_DOT": -5.51e-06,
    "MEAN_MOTION_DDOT": 0.0,
    "TLE_LINE1": "1 53555U 22101AE  25315.16657792 -.00000551  00000+0 -16507-4 0  9993",
    "TLE_LINE2": "2 53555  53.2186 236.1902 0001458 100.7652 259.3505 15.08852084179076",
    "COMMENT": "Grouped by shell and plane from TLE"
  },
  {
    "OBJECT_NAME": "STARLINK-4505",
    "OBJECT_ID": "22101AF",
    "EPOCH": "2025-11-11T03:33:22.349376",
    "MEAN_MOTION": 15.08841739,
    "ECCENTRICITY": 0.0001345,
    "INCLINATION": 53.2178,
    "RA_OF_ASC_NODE": 236.2752,
    "ARG_OF_PERICENTER": 82.4096,
    "MEAN_ANOMALY": 277.7049,
    "EPHEMERIS_TYPE": 0,
    "CLASSIFICATION_TYPE": "U",
    "NORAD_CAT_ID": 53556,
    "ELEMENT_SET_NO": 999,
    "REV_AT_EPOCH": 17841,
    "BSTAR": 0.00015509,
    "MEAN_MOTION_DOT": 2.181e-05,
    "MEAN_MOTION_DDOT": 0.0,
    "TLE_LINE1": "1 53556U 22101AF  25315.14817534  .00002181  00000+0  15509-3 0  9993",
    "TLE_LINE2": "2 53556  53.2178 236.2752 0001345  82.4096 277.7049 15.08841739178414",
    "COMMENT": "Grouped by shell and plane from TLE"
  },
  {
    "OBJECT_NAME": "STARLINK-4502",
    "OBJECT_ID": "22101AG",
    "EPOCH": "2025-11-11T03:49:16.250304",
    "MEAN_MOTION": 15.08840199,
    "ECCENTRICITY": 0.0001408,
    "INCLINATION": 53.2181,
    "RA_OF_ASC_NODE": 236.2249,
    "ARG_OF_PERICENTER": 101.5084,
    "MEAN_ANOMALY": 258.6067,
    "EPHEMERIS_TYPE": 0,
    "CLASSIFICATION_TYPE": "U",
    "NORAD_CAT_ID": 53557,
    "ELEMENT_SET_NO": 999,
    "REV_AT_EPOCH": 17906,
    "BSTAR": 0.00011242000000000001,
    "MEAN_MOTION_DOT": 1.502e-05,
    "MEAN_MOTION_DDOT": 0.0,
    "TLE_LINE1": "1 53557U 22101AG  25315.15921586  .00001502  00000+0  11242-3 0  9994",
    "TLE_LINE2": "2 53557  53.2181 236.2249 0001408 101.5084 258.6067 15.08840199179069",
    "COMMENT": "Grouped by shell and plane from TLE"
  },
  {
    "OBJECT_NAME": "STARLINK-4494",
    "OBJECT_ID": "22101AH",
    "EPOCH": "2025-11-11T03:36:38.172384",
    "MEAN_MOTION": 15.08851909,
    "ECCENTRICITY": 0.0001477,
    "INCLINATION": 53.2171,
    "RA_OF_ASC_NODE": 230.9832,
    "ARG_OF_PERICENTER": 93.2362,
    "MEAN_ANOMALY": 266.8799,
    "EPHEMERIS_TYPE": 0,
    "CLASSIFICATION_TYPE": "U",
    "NORAD_CAT_ID": 53558,
    "ELEMENT_SET_NO": 999,
    "REV_AT_EPOCH": 17914,
    "BSTAR": 0.0,
    "MEAN_MOTION_DOT": -7.15e-06,
    "MEAN_MOTION_DDOT": 0.0,
    "TLE_LINE1": "1 53558U 22101AH  25315.15044181 -.00000715  00000+0 -26833-4 0  9992",
    "TLE_LINE2": "2 53558  53.2171 230.9832 0001477  93.2362 266.8799 15.08851909179143",
    "COMMENT": "Grouped by shell and plane from TLE"
  },
  {
    "OBJECT_NAME": "STARLINK-4508",
    "OBJECT_ID": "22101AJ",
    "EPOCH": "2025-11-11T03:38:40.603776",
    "MEAN_MOTION": 15.08850382,
    "ECCENTRICITY": 0.0001465,
    "INCLINATION": 53.2161,
    "RA_OF_ASC_NODE": 236.2574,
    "ARG_OF_PERICENTER": 83.0068,
    "MEAN_ANOMALY": 277.1091,
    "EPHEMERIS_TYPE": 0,
    "CLASSIFICATION_TYPE": "U",
    "NORAD_CAT_ID": 53559,
    "ELEMENT_SET_NO": 999,
    "REV_AT_EPOCH": 17841,
    "BSTAR": 7.437200000000001e-05,
    "MEAN_MOTION_DOT": 8.96e-06,
    "MEAN_MOTION_DDOT": 0.0,
    "TLE_LINE1": "1 53559U 22101AJ  25315.15185884  .00000896  00000+0  74372-4 0  9998",
    "TLE_LINE2": "2 53559  53.2161 236.2574 0001465  83.0068 277.1091 15.08850382178415",
    "COMMENT": "Grouped by shell and plane from TLE"
  },
  {
    "OBJECT_NAME": "STARLINK-4563",
    "OBJECT_ID": "22101AL",
    "EPOCH": "2025-11-11T05:03:28.095840",
    "MEAN_MOTION": 15.08870744,
    "ECCENTRICITY": 0.0001127,
    "INCLINATION": 53.216,
    "RA_OF_ASC_NODE": 235.9948,
    "ARG_OF_PERICENTER": 88.5861,
    "MEAN_ANOMALY": 271.5261,
    "EPHEMERIS_TYPE": 0,
    "CLASSIFICATION_TYPE": "U",
    "NORAD_CAT_ID": 53561,
    "ELEMENT_SET_NO": 999,
    "REV_AT_EPOCH": 17842,
    "BSTAR": 0.00094981,
    "MEAN_MOTION_DOT": 0.00014873,
    "MEAN_MOTION_DDOT": 0.0,
    "TLE_LINE1": "1 53561U 22101AL  25315.21074185  .00014873  00000+0  94981-3 0  9996",
    "TLE_LINE2": "2 53561  53.2160 235.9948 0001127  88.5861 271.5261 15.08870744178426",
    "COMMENT": "Grouped by shell and plane from TLE"
  },
  {
    "OBJECT_NAME": "STARLINK-5664",
    "OBJECT_ID": "23013AF",
    "EPOCH": "2025-11-11T05:03:54.311328",
    "MEAN_MOTION": 15.02535604,
    "ECCENTRICITY": 0.0001132,
    "INCLINATION": 43.003,
    "RA_OF_ASC_NODE": 236.543,
    "ARG_OF_PERICENTER": 280.5572,
    "MEAN_ANOMALY": 79.5143,
    "EPHEMERIS_TYPE": 0,
    "CLASSIFICATION_TYPE": "U",
    "NORAD_CAT_ID": 55360,
    "ELEMENT_SET_NO": 999,
    "REV_AT_EPOCH": 15374,
    "BSTAR": 0.00014209,
    "MEAN_MOTION_DOT": 1.716e-05,
    "MEAN_MOTION_DDOT": 0.0,
    "TLE_LINE1": "1 55360U 23013AF  25315.21104527  .00001716  00000+0  14209-3 0  9999",
    "TLE_LINE2": "2 55360  43.0030 236.5430 0001132 280.5572  79.5143 15.02535604153740",
    "COMMENT": "Grouped by shell and plane from TLE"
  }
]